NORAD_CAT_ID,OBJECT_NAME,OBJECT_TYPE,EPOCH,MEAN_MOTION,ECCENTRICITY,INCLINATION,RA_OF_ASC_NODE,ARG_OF_PERICENTER,MEAN_ANOMALY,BSTAR,MEAN_MOTION_DOT,MEAN_MOTION_DDOT,TLE_LINE0,TLE_LINE1,TLE_LINE2,SEMIMAJOR_AXIS,PERIOD,APOGEE,PERIGEE,DECAYED
51749.0,STARLINK-3451,PAYLOAD,2023-02-08 05:37:20,15.08849486,0.0001248,53.2171,331.4854,84.7437,275.3698,0.00023415,3.442e-05,0.0,0 STARLINK-3451,1 51749U 22016AM  23039.23426217  .00003442  00000-0  23415-3 0  9992,2 51749  53.2171 331.4854 0001248  84.7437 275.3698 15.08849486 54768,6917.851,95.437,540.58,538.853,0.0
51749.0,STARLINK-3451,PAYLOAD,2023-02-09 05:28:06,15.08864902,0.0001009,53.2164,327.0262,88.4238,271.687,0.00071228,0.00011074,0.0,0 STARLINK-3451,1 51749U 22016AM  23040.22785742  .00011074  00000-0  71228-3 0  9999,2 51749  53.2164 327.0262 0001009  88.4238 271.6870 15.08864902 53804,6917.804,95.436,540.367,538.971,0.0
51749.0,STARLINK-3451,PAYLOAD,2023-02-09 22:57:22,15.08837347,9.26e-05,53.217,323.7551,102.2492,257.8604,-8.4406e-06,-4.22e-06,0.0,0 STARLINK-3451,1 51749U 22016AM  23040.95650556 -.00000422  00000-0 -84406-5 0  9994,2 51749  53.2170 323.7551 0000926 102.2492 257.8604 15.08837347 55029,6917.888,95.438,540.394,539.113,0.0
51749.0,STARLINK-3451,PAYLOAD,2023-02-10 03:43:31,15.08859849,9.65e-05,53.2157,322.8625,122.5052,237.6033,0.00078959,0.00012308,0.0,0 STARLINK-3451,1 51749U 22016AM  23041.15522176  .00012308  00000-0  78959-3 0  9991,2 51749  53.2157 322.8625 0000965 122.5052 237.6033 15.08859849 53948,6917.82,95.436,540.352,539.017,0.0
51749.0,STARLINK-3451,PAYLOAD,2023-02-10 19:37:22,15.08844397,0.0001099,53.2154,319.8899,106.4211,253.6902,0.00024627,3.634e-05,0.0,0 STARLINK-3451,1 51749U 22016AM  23041.81761961  .00003634  00000-0  24627-3 0  9996,2 51749  53.2154 319.8899 0001099 106.4211 253.6902 15.08844397 54048,6917.867,95.437,540.492,538.972,0.0
51749.0,STARLINK-3451,PAYLOAD,2023-02-11 00:23:31,15.08849992,0.0001074,53.2157,318.9975,105.7249,254.3861,0.00055562,8.568e-05,0.0,0 STARLINK-3451,1 51749U 22016AM  23042.01633895  .00008568  00000-0  55562-3 0  9996,2 51749  53.2157 318.9975 0001074 105.7249 254.3861 15.08849992 55186,6917.85,95.437,540.458,538.972,0.0
51749.0,STARLINK-3451,PAYLOAD,2023-02-11 01:58:54,15.08859421,9.96e-05,53.2155,318.7011,109.6149,250.495,0.00071478,0.00011112,0.0,0 STARLINK-3451,1 51749U 22016AM  23042.08257850  .00011112  00000-0  71478-3 0  9999,2 51749  53.2155 318.7011 0000996 109.6149 250.4950 15.08859421 54089,6917.821,95.436,540.375,538.997,0.0
51749.0,STARLINK-3451,PAYLOAD,2023-02-11 17:52:46,15.08839675,0.0001508,53.2153,315.7266,80.8738,279.2425,0.00011994,1.621e-05,0.0,0 STARLINK-3451,1 51749U 22016AM  23042.74498725  .00001621  00000-0  11994-3 0  9991,2 51749  53.2153 315.7266 0001508  80.8738 279.2425 15.08839675 55299,6917.881,95.438,540.79,538.703,0.0
51749.0,STARLINK-3451,PAYLOAD,2023-02-12 03:25:05,15.08839813,0.0001506,53.2137,313.9428,67.4116,292.7036,0.00079242,0.00012346,0.0,0 STARLINK-3451,1 51749U 22016AM  23043.14242987  .00012346  00000-0  79242-3 0  9999,2 51749  53.2137 313.9428 0001506  67.4116 292.7036 15.08839813 54246,6917.881,95.438,540.788,538.704,0.0
51749.0,STARLINK-3451,PAYLOAD,2023-02-12 20:54:21,15.08826853,0.0001286,53.2151,310.6706,71.8489,288.2643,0.00074939,0.00011654,0.0,0 STARLINK-3451,1 51749U 22016AM  23043.87107927  .00011654  00000-0  74939-3 0  9992,2 51749  53.2151 310.6706 0001286  71.8489 288.2643 15.08826853 55461,6917.921,95.438,540.675,538.896,0.0
51749.0,STARLINK-3451,PAYLOAD,2023-02-13 03:15:53,15.08856477,0.0001121,53.2156,309.4794,82.1249,277.9871,0.0015486,0.00024455,0.0,0 STARLINK-3451,1 51749U 22016AM  23044.13603534  .00024455  00000-0  15486-2 0  9991,2 51749  53.2156 309.4794 0001121  82.1249 277.9871 15.08856477 55504,6917.83,95.437,540.471,538.92,0.0
51749.0,STARLINK-3451,PAYLOAD,2023-02-13 11:12:49,15.08838044,0.0001862,53.2153,307.9935,85.936,274.1845,0.00051465,7.912e-05,0.0,0 STARLINK-3451,1 51749U 22016AM  23044.46724339  .00007912  00000-0  51465-3 0  9991,2 51749  53.2153 307.9935 0001862  85.9360 274.1845 15.08838044 55553,6917.886,95.438,541.039,538.463,0.0
51749.0,STARLINK-3451,PAYLOAD,2023-02-14 03:06:40,15.08863485,0.0001284,53.2145,305.0208,70.5753,289.5378,0.0015146,0.00023915,0.0,0 STARLINK-3451,1 51749U 22016AM  23045.12963925  .00023915  00000-0  15146-2 0  9997,2 51749  53.2145 305.0208 0001284  70.5753 289.5378 15.08863485 55659,6917.809,95.436,540.562,538.785,0.0
51749.0,STARLINK-3451,PAYLOAD,2023-02-14 17:25:09,15.08849349,6.09e-05,53.2157,302.3439,77.9167,282.1894,0.0010297,0.00016142,0.0,0 STARLINK-3451,1 51749U 22016AM  23045.72580165  .00016142  00000-0  10297-2 0  9990,2 51749  53.2157 302.3439 0000609  77.9167 282.1894 15.08849349 55743,6917.852,95.437,540.138,539.296,0.0
51749.0,STARLINK-3451,PAYLOAD,2023-02-15 09:19:00,15.08863906,8.7e-05,53.2154,299.3709,55.3052,304.8022,0.0014594,0.0002303,0.0,0 STARLINK-3451,1 51749U 22016AM  23046.38819578  .00023030  00000-0  14594-2 0  9994,2 51749  53.2154 299.3709 0000870  55.3052 304.8022 15.08863906 54736,6917.807,95.436,540.274,539.07,0.0
51749.0,STARLINK-3451,PAYLOAD,2023-02-15 22:02:05,15.08860806,0.0001341,53.2156,296.9932,80.2058,279.9086,0.00088879,0.00013893,0.0,0 STARLINK-3451,1 51749U 22016AM  23046.91811544  .00013893  00000-0  88879-3 0  9992,2 51749  53.2156 296.9932 0001341  80.2058 279.9086 15.08860806 54813,6917.817,95.436,540.609,538.754,0.0
51749.0,STARLINK-3451,PAYLOAD,2023-02-15 23:37:28,15.08874298,0.0001307,53.2152,296.6946,77.9737,282.1402,0.0017055,0.00026985,0.0,0 STARLINK-3451,1 51749U 22016AM  23046.98435340  .00026985  00000-0  17055-2 0  9998,2 51749  53.2152 296.6946 0001307  77.9737 282.1402 15.08874298 55932,6917.776,95.435,540.545,538.736,0.0
51749.0,STARLINK-3451,PAYLOAD,2023-02-16 09:09:46,15.0886318,0.0001005,53.2156,294.9097,82.4876,277.6231,0.0012057,0.00018965,0.0,0 STARLINK-3451,1 51749U 22016AM  23047.38179191  .00018965  00000-0  12057-2 0  9998,2 51749  53.2156 294.9097 0001005  82.4876 277.6231 15.08863180 54884,6917.81,95.436,540.37,538.979,0.0
51749.0,STARLINK-3451,PAYLOAD,2023-02-16 15:31:19,15.08851149,0.0002505,53.2143,293.7204,77.0896,283.0376,0.0010548,0.00016544,0.0,0 STARLINK-3451,1 51749U 22016AM  23047.64675865  .00016544  00000-0  10548-2 0  9990,2 51749  53.2143 293.7204 0002505  77.0896 283.0376 15.08851149 56037,6917.846,95.437,541.444,537.978,0.0
51749.0,STARLINK-3451,PAYLOAD,2023-02-16 21:52:52,15.08832532,0.000123,53.2148,292.5333,94.3558,265.7574,0.0006571,0.00010183,0.0,0 STARLINK-3451,1 51749U 22016AM  23047.91171843  .00010183  00000-0  65710-3 0  9992,2 51749  53.2148 292.5333 0001230  94.3558 265.7574 15.08832532 56079,6917.903,95.438,540.619,538.917,0.0
51749.0,STARLINK-3451,PAYLOAD,2023-02-17 02:39:01,15.08852833,0.0001294,53.2145,291.6392,86.0499,274.0641,0.00086638,0.00013532,0.0,0 STARLINK-3451,1 51749U 22016AM  23048.11043581  .00013532  00000-0  86638-3 0  9995,2 51749  53.2145 291.6392 0001294  86.0499 274.0641 15.08852833 56101,6917.841,95.437,540.601,538.811,0.0
51749.0,STARLINK-3451,PAYLOAD,2023-02-17 09:00:34,15.08826446,0.0001647,53.2139,290.4474,86.4456,273.6725,0.00033154,4.99e-05,0.0,0 STARLINK-3451,1 51749U 22016AM  23048.37540424  .00004990  00000-0  33154-3 0  9994,2 51749  53.2139 290.4474 0001647  86.4456 273.6725 15.08826446 56144,6917.922,95.438,540.926,538.647,0.0
51749.0,STARLINK-3451,PAYLOAD,2023-02-17 20:08:17,15.088173,0.000144,53.2153,288.3708,101.8325,258.2829,0.00068203,0.00010576,0.0,0 STARLINK-3451,1 51749U 22016AM  23048.83909187  .00010576  00000-0  68203-3 0  9990,2 51749  53.2153 288.3708 0001440 101.8325 258.2829 15.08817300 55102,6917.95,95.439,540.811,538.819,0.0
51749.0,STARLINK-3451,PAYLOAD,2023-02-17 23:19:03,15.08823699,0.0001556,53.2149,287.7739,93.0089,267.1082,0.00076309,0.00011872,0.0,0 STARLINK-3451,1 51749U 22016AM  23048.97157311  .00011872  00000-0  76309-3 0  9995,2 51749  53.2149 287.7739 0001556  93.0089 267.1082 15.08823699 56234,6917.93,95.439,540.872,538.719,0.0
51749.0,STARLINK-3451,PAYLOAD,2023-02-18 08:51:22,15.0883776,0.0001441,53.2145,285.9911,96.9578,263.1578,0.0011277,0.00017704,0.0,0 STARLINK-3451,1 51749U 22016AM  23049.36901503  .00017704  00000-0  11277-2 0  9991,2 51749  53.2145 285.9911 0001441  96.9578 263.1578 15.08837760 55183,6917.887,95.438,540.749,538.755,0.0
51749.0,STARLINK-3451,PAYLOAD,2023-02-18 21:34:27,15.08861165,0.0001433,53.2142,283.612,95.5145,264.601,0.0011544,0.00018143,0.0,0 STARLINK-3451,1 51749U 22016AM  23049.89893005  .00018143  00000-0  11544-2 0  9991,2 51749  53.2142 283.6120 0001433  95.5145 264.6010 15.08861165 56378,6917.816,95.436,540.672,538.689,0.0
51749.0,STARLINK-3451,PAYLOAD,2023-02-19 08:42:09,15.08859756,0.0001328,53.2133,281.5291,85.5212,274.5932,0.0008657,0.00013524,0.0,0 STARLINK-3451,1 51749U 22016AM  23050.36260664  .00013524  00000-0  86570-3 0  9994,2 51749  53.2133 281.5291 0001328  85.5212 274.5932 15.08859756 55332,6917.82,95.436,540.604,538.766,0.0
51749.0,STARLINK-3451,PAYLOAD,2023-02-19 15:03:41,15.08848847,0.0001555,53.2128,280.339,92.7314,267.3856,0.0001883,2.711e-05,0.0,0 STARLINK-3451,1 51749U 22016AM  23050.62756689  .00002711  00000-0  18830-3 0  9990,2 51749  53.2128 280.3390 0001555  92.7314 267.3856 15.08848847 56489,6917.853,95.437,540.794,538.643,0.0
51749.0,STARLINK-3451,PAYLOAD,2023-02-20 08:32:56,15.08848762,0.0001469,53.2137,277.0673,91.7486,268.3675,0.00016125,2.28e-05,0.0,0 STARLINK-3451,1 51749U 22016AM  23051.35620384  .00002280  00000-0  16125-3 0  9999,2 51749  53.2137 277.0673 0001469  91.7486 268.3675 15.08848762 55484,6917.854,95.437,540.735,538.702,0.0
51749.0,STARLINK-3451,PAYLOAD,2023-02-21 00:26:44,15.08900851,0.0001292,53.2141,274.0936,79.0694,281.0444,0.00071766,0.00011171,0.0,0 STARLINK-3451,1 51749U 22016AM  23052.01856836  .00011171  00000-0  71766-3 0  9997,2 51749  53.2141 274.0936 0001292  79.0694 281.0444 15.08900851 56690,6917.694,95.434,540.453,538.666,0.0
